{
    "links": {
        "self": "http://www.neowsapp.com/rest/v1/neo/54016191?api_key=iIulBulltgU6a56xZRHN4H3l9WmuAYTsLGpBGhQ2"
    },
    "id": "54016191",
    "neo_reference_id": "54016191",
    "name": "(2020 EU)",
    "designation": "2020 EU",
    "nasa_jpl_url": "http://ssd.jpl.nasa.gov/sbdb.cgi?sstr=54016191",
    "absolute_magnitude_h": 24.122,
    "estimated_diameter": {
        "kilometers": {
            "estimated_diameter_min": 0.0398249259,
            "estimated_diameter_max": 0.0890512416
        },
        "meters": {
            "estimated_diameter_min": 39.8249259184,
            "estimated_diameter_max": 89.0512415523
        },
        "miles": {
            "estimated_diameter_min": 0.024746054,
            "estimated_diameter_max": 0.055333859
        },
        "feet": {
            "estimated_diameter_min": 130.65920995,
            "estimated_diameter_max": 292.1628753345
        }
    },
    "is_potentially_hazardous_asteroid": false,
    "close_approach_data": [
        {
            "close_approach_date": "2020-02-26",
            "close_approach_date_full": "2020-Feb-26 20:55",
            "epoch_date_close_approach": 1582750500000,
            "relative_velocity": {
                "kilometers_per_second": "6.0591934645",
                "kilometers_per_hour": "21813.0964723081",
                "miles_per_hour": "13553.8098608072"
            },
            "miss_distance": {
                "astronomical": "0.1423771447",
                "lunar": "55.3847092883",
                "kilometers": "21299317.583801789",
                "miles": "13234782.2415671282"
            },
            "orbiting_body": "Earth"
        }
    ],
    "orbital_data": {
        "orbit_id": "2",
        "orbit_determination_date": "2020-03-18 06:19:06",
        "first_observation_date": "2020-03-15",
        "last_observation_date": "2020-03-18",
        "data_arc_in_days": 3,
        "observations_used": 29,
        "orbit_uncertainty": "9",
        "minimum_orbit_intersection": ".14205",
        "jupiter_tisserand_invariant": "4.006",
        "epoch_osculation": "2458924.5",
        "eccentricity": ".3726069326861211",
        "semi_major_axis": "1.771211622589911",
        "inclination": "9.485014205320265",
        "ascending_node_longitude": "354.8942153694156",
        "orbital_period": "861.0018942177674",
        "perihelion_distance": "1.111245892758677",
        "perihelion_argument": "147.1591039130354",
        "aphelion_distance": "2.431177352421146",
        "perihelion_time": "2458891.627072480658",
        "mean_anomaly": "13.7447478181389",
        "mean_motion": ".418117547031723",
        "equinox": "J2000",
        "orbit_class": {
            "orbit_class_type": "AMO",
            "orbit_class_description": "Near-Earth asteroid orbits similar to that of 1221 Amor",
            "orbit_class_range": "1.017 AU < q (perihelion) < 1.3 AU"
        }
    },
    "is_sentry_object": false
}